QIANFAN-81              
1 63167U 25046J   25263.31538587  .00000187  00000+0  27086-3 0  9999
2 63167  88.9838 328.4938 0014340  11.1695 348.9772 13.50977630 36225
QIANFAN-82              
1 63168U 25046K   25263.27421817  .00000171  00000+0  24610-3 0  9995
2 63168  88.9838 328.5416 0012867  20.4562 339.7102 13.50965610 36204
QIANFAN-83              
1 63169U 25046L   25263.23984634  .00000212  00000+0  25895-3 0  9995
2 63169  88.9837 328.4852 0013701   9.6360 350.5058 13.61951987 36238
QIANFAN-84              
1 63170U 25046M   25263.22877914  .00000152  00000+0  21689-3 0  9998
2 63170  88.9838 328.6792 0015624  15.1104 345.0511 13.50979696 36126
QIANFAN-85              
1 63171U 25046N   25263.22492260  .00000184  00000+0  26668-3 0  9993
2 63171  88.9837 328.5517 0013143  19.3794 340.7854 13.50975598 36191
QIANFAN-86              
1 63172U 25046P   25263.23313876  .00000180  00000+0  26060-3 0  9992
2 63172  88.9839 328.4110 0011230  25.5050 334.6653 13.50976078 36273
QIANFAN-87              
1 63173U 25046Q   25263.27840722  .00000181  00000+0  26116-3 0  9995
2 63173  88.9835 328.5212 0011711  19.6206 340.5393 13.50972019 36217
QIANFAN-88              
1 63174U 25046R   25263.29481395  .00000175  00000+0  25254-3 0  9990
2 63174  88.9840 328.4724 0012425  27.0961 333.0836 13.50965590 36243
